KUIPER-00125            
1 65954U 25228H   25336.49519610  .00040967  00000+0  11588-2 0  9992
2 65954  51.8790  69.8850 0006118 330.7183  29.3460 15.35897269  8847
KUIPER-00126            
1 65955U 25228J   25336.50006943 -.01177718  00000+0 -83266-1 0  9994
2 65955  51.8928  72.5430 0006302 335.4633 123.9490 15.07577723  4886
KUIPER-00127            
1 65956U 25228K   25336.50006943 -.00798212  00000+0 -44051-1 0  9991
2 65956  51.8923  71.3567 0004012 358.2701  42.0744 15.16249366  3202
KUIPER-00128            
1 65957U 25228L   25336.50006943 -.00200985  00000+0 -74429-2 0  9990
2 65957  51.8819  70.0596 0004675 327.7516 311.4245 15.27969269  5490
KUIPER-00129            
1 65958U 25228M   25336.49202993  .00023057  00000+0  65772-3 0  9995
2 65958  51.8792  69.8743 0006086 319.5401  40.5132 15.35933610  8848
KUIPER-00130            
1 65959U 25228N   25336.50381955 -.00223300  00000+0 -68385-2 0  9991
2 65959  51.8802  69.9430 0005248 334.9630  25.1100 15.34151194  8841
KUIPER-00134            
1 65960U 25228P   25336.50469316  .00040347  00000+0  11639-2 0  9997
2 65960  51.8790  69.9463 0006577 335.0243  25.0424 15.35285005  8841
KUIPER-00135            
1 65961U 25228Q   25336.50006943  .00010095  00000+0  33578-3 0  9995
2 65961  51.8809  70.0185 0004927 328.9613 339.5176 15.31751191  5851
